NORAD_CAT_ID,OBJECT_NAME,OBJECT_TYPE,EPOCH,MEAN_MOTION,ECCENTRICITY,INCLINATION,RA_OF_ASC_NODE,ARG_OF_PERICENTER,MEAN_ANOMALY,BSTAR,MEAN_MOTION_DOT,MEAN_MOTION_DDOT,TLE_LINE0,TLE_LINE1,TLE_LINE2,SEMIMAJOR_AXIS,PERIOD,APOGEE,PERIGEE,DECAYED
52295.0,STARLINK-3765,PAYLOAD,2022-11-16 11:28:40,15.08844441,0.0001745,53.2179,127.4693,56.7852,303.3308,3.2412e-05,2.28e-06,0.0,0 STARLINK-3765,1 52295U 22041AL  22320.47824602  .00000228  00000-0  32412-4 0  9992,2 52295  53.2179 127.4693 0001745  56.7852 303.3308 15.08844441 31951,6917.8669999999975,95.437,540.939,538.525,0.0
52295.0,STARLINK-3765,PAYLOAD,2022-11-16 17:50:12,15.08846158,0.0001743,53.2183,126.2802,56.556,303.5599,4.1077e-05,3.66e-06,0.0,0 STARLINK-3765,1 52295U 22041AL  22320.74320364  .00000366  00000-0  41077-4 0  9998,2 52295  53.2183 126.2802 0001743  56.5560 303.5599 15.08846158 31992,6917.861999999999,95.437,540.932,538.521,0.0
52295.0,STARLINK-3765,PAYLOAD,2022-11-17 11:19:28,15.08830533,0.0001646,53.2177,123.0087,55.0761,305.0386,-4.4447e-05,-9.95e-06,0.0,0 STARLINK-3765,1 52295U 22041AL  22321.47185565 -.00000995  00000-0 -44447-4 0  9995,2 52295  53.2177 123.0087 0001646  55.0761 305.0386 15.08830533 32109,6917.909000000002,95.438,540.913,538.636,0.0
52295.0,STARLINK-3765,PAYLOAD,2022-11-17 14:30:14,15.08831406,0.0001641999999999,53.2176,122.4141,54.8688,305.2458,-3.7855e-05,-8.900000000000001e-06,0.0,0 STARLINK-3765,1 52295U 22041AL  22321.60433504 -.00000890  00000-0 -37855-4 0  9998,2 52295  53.2176 122.4141 0001642  54.8688 305.2458 15.08831406 32127,6917.906999999997,95.438,540.908,538.636,0.0
52295.0,STARLINK-3765,PAYLOAD,2022-11-18 11:10:15,15.08837804,0.0001719,53.2173,118.5482,53.3684,306.7466,1.0237e-06,-2.72e-06,0.0,0 STARLINK-3765,1 52295U 22041AL  22322.46545274 -.00000272  00000-0  10237-5 0  9990,2 52295  53.2173 118.5482 0001719  53.3684 306.7466 15.08837804 33475,6917.887,95.438,540.941,538.563,0.0
52295.0,STARLINK-3765,PAYLOAD,2022-11-18 15:56:24,15.08840688,0.0001676999999999,53.2178,117.6565,56.1068,304.0083,3.2816e-05,2.34e-06,0.0,0 STARLINK-3765,1 52295U 22041AL  22322.66417014  .00000234  00000-0  32816-4 0  9995,2 52295  53.2178 117.6565 0001677  56.1068 304.0083 15.08840688 32280,6917.878000000002,95.438,540.903,538.5830000000002,0.0
52295.0,STARLINK-3765,PAYLOAD,2022-11-19 11:01:02,15.08831859,0.0001621,53.2191,114.0886,59.7267,300.3885,2.6684e-05,1.37e-06,0.0,0 STARLINK-3765,1 52295U 22041AL  22323.45905729  .00000137  00000-0  26684-4 0  9996,2 52295  53.2191 114.0886 0001621  59.7267 300.3885 15.08831859 32404,6917.905,95.438,540.8919999999998,538.649,0.0
52295.0,STARLINK-3765,PAYLOAD,2022-11-19 17:22:35,15.08833216,0.0001636999999999,53.2191,112.8994,59.5401,300.5752,3.4332e-05,2.58e-06,0.0,0 STARLINK-3765,1 52295U 22041AL  22323.72401719  .00000258  00000-0  34332-4 0  9999,2 52295  53.2191 112.8994 0001637  59.5401 300.5752 15.08833216 33668,6917.901,95.438,540.899,538.634,0.0
52295.0,STARLINK-3765,PAYLOAD,2022-11-19 20:33:21,15.08832561,0.0001668,53.2187,112.3046,56.8428,303.2724,2.421e-05,9.7e-07,0.0,0 STARLINK-3765,1 52295U 22041AL  22323.85649813  .00000097  00000-0  24210-4 0  9997,2 52295  53.2187 112.3046 0001668  56.8428 303.2724 15.08832561 32467,6917.903,95.438,540.922,538.614,0.0
52295.0,STARLINK-3765,PAYLOAD,2022-11-20 10:51:49,15.08844009,0.0001662,53.2189,109.6285,56.6152,303.4999,6.3131e-05,7.17e-06,0.0,0 STARLINK-3765,1 52295U 22041AL  22324.45265078  .00000717  00000-0  63131-4 0  9995,2 52295  53.2189 109.6285 0001662  56.6152 303.4999 15.08844009 33770,6917.868,95.437,540.883,538.5830000000002,0.0
52295.0,STARLINK-3765,PAYLOAD,2022-11-20 20:24:07,15.08841867,0.0001594,53.2191,107.8437,54.9497,305.1644,1.8972e-05,1.4e-07,0.0,0 STARLINK-3765,1 52295U 22041AL  22324.85009242  .00000014  00000-0  18972-4 0  9991,2 52295  53.2191 107.8437 0001594  54.9497 305.1644 15.08841867 32616,6917.875,95.437,540.842,538.637,0.0
52295.0,STARLINK-3765,PAYLOAD,2022-11-21 09:07:13,15.08832056,0.0001621,53.2186,105.4651,51.3175,308.7962,4.6035e-05,4.45e-06,0.0,0 STARLINK-3765,1 52295U 22041AL  22325.38001924  .00000445  00000-0  46035-4 0  9998,2 52295  53.2186 105.4651 0001621  51.3175 308.7962 15.08832056 33913,6917.905,95.438,540.891,538.648,0.0
52295.0,STARLINK-3765,PAYLOAD,2022-11-21 15:28:45,15.08838914,0.0001705,53.2189,104.2756,52.6139,307.5009,6.324e-05,7.19e-06,0.0,0 STARLINK-3765,1 52295U 22041AL  22325.64497546  .00000719  00000-0  63240-4 0  9997,2 52295  53.2189 104.2756 0001705  52.6139 307.5009 15.08838914 33958,6917.884,95.438,540.928,538.569,0.0
52295.0,STARLINK-3765,PAYLOAD,2022-11-21 17:04:08,15.0883976,0.0001702,53.2189,103.9783,51.8974,308.2171,6.8919e-05,8.09e-06,0.0,0 STARLINK-3765,1 52295U 22041AL  22325.71121487  .00000809  00000-0  68919-4 0  9991,2 52295  53.2189 103.9783 0001702  51.8974 308.2171 15.08839760 32743,6917.880999999999,95.438,540.924,538.569,0.0
52295.0,STARLINK-3765,PAYLOAD,2022-11-22 08:57:59,15.08846856,0.0001720999999999,53.2189,101.0048,53.4994,306.6156,8.569799999999999e-05,1.076e-05,0.0,0 STARLINK-3765,1 52295U 22041AL  22326.37360854  .00001076  00000-0  85698-4 0  9997,2 52295  53.2189 101.0048 0001721  53.4994 306.6156 15.08846856 34063,6917.859,95.437,540.915,538.534,0.0
52295.0,STARLINK-3765,PAYLOAD,2022-11-22 15:19:32,15.08845637,0.0001757,53.2191,99.8157,52.8404,307.2749,5.0952e-05,5.23e-06,0.0,0 STARLINK-3765,1 52295U 22041AL  22326.63857039  .00000523  00000-0  50952-4 0  9993,2 52295  53.2191  99.8157 0001757  52.8404 307.2749 15.08845637 32888,6917.863,95.437,540.944,538.513,0.0
52295.0,STARLINK-3765,PAYLOAD,2022-11-23 08:48:47,15.08840133,0.000169,53.219,96.5447,49.8869,310.2271,8.0831e-05,9.99e-06,0.0,0 STARLINK-3765,1 52295U 22041AL  22327.36721195  .00000999  00000-0  80831-4 0  9993,2 52295  53.2190  96.5447 0001690  49.8869 310.2271 15.08840133 32992,6917.88,95.438,540.914,538.576,0.0
52295.0,STARLINK-3765,PAYLOAD,2022-11-23 15:10:20,15.08836931,0.0001769,53.2193,95.3554,52.3434,307.7718,2.8076e-05,1.59e-06,0.0,0 STARLINK-3765,1 52295U 22041AL  22327.63217717  .00000159  00000-0  28076-4 0  9994,2 52295  53.2193  95.3554 0001769  52.3434 307.7718 15.08836931 34254,6917.89,95.438,540.979,538.531,0.0
52295.0,STARLINK-3765,PAYLOAD,2022-11-24 08:39:34,15.08834289,0.0001581,53.2218,92.086,39.1883,320.9223,3.9556e-05,3.42e-06,0.0,0 STARLINK-3765,1 52295U 22041AL  22328.36081831  .00000342  00000-0  39556-4 0  9990,2 52295  53.2218  92.0860 0001581  39.1883 320.9223 15.08834289 33148,6917.898,95.438,540.857,538.669,0.0
52295.0,STARLINK-3765,PAYLOAD,2022-11-24 15:01:06,15.08839576,0.0001728,53.2194,90.8951,49.0681,311.046,7.715e-05,9.4e-06,0.0,0 STARLINK-3765,1 52295U 22041AL  22328.62577440  .00000940  00000-0  77150-4 0  9991,2 52295  53.2194  90.8951 0001728  49.0681 311.0460 15.08839576 33189,6917.882,95.438,540.942,538.5509999999998,0.0
52295.0,STARLINK-3765,PAYLOAD,2022-11-25 08:30:21,15.08833104,0.0001679,53.2187,87.6233,46.4547,313.6584,9.756e-05,1.265e-05,0.0,0 STARLINK-3765,1 52295U 22041AL  22329.35441767  .00001265  00000-0  97560-4 0  9992,2 52295  53.2187  87.6233 0001679  46.4547 313.6584 15.08833104 34519,6917.901,95.438,540.928,538.605,0.0
52295.0,STARLINK-3765,PAYLOAD,2022-11-25 11:41:07,15.08834844,0.0001659,53.2185,87.0285,45.0195,315.0931,0.00011351,1.519e-05,0.0,0 STARLINK-3765,1 52295U 22041AL  22329.48689728  .00001519  00000-0  11351-3 0  9992,2 52295  53.2185  87.0285 0001659  45.0195 315.0931 15.08834844 33311,6917.896,95.438,540.909,538.613,0.0
52295.0,STARLINK-3765,PAYLOAD,2022-11-25 14:51:54,15.08835415,0.0001659,53.2188,86.434,44.0142,316.0982,0.00011562,1.552e-05,0.0,0 STARLINK-3765,1 52295U 22041AL  22329.61937762  .00001552  00000-0  11562-3 0  9992,2 52295  53.2188  86.4340 0001659  44.0142 316.0982 15.08835415 33334,6917.894,95.438,540.9069999999998,538.612,0.0
52295.0,STARLINK-3765,PAYLOAD,2022-11-26 00:24:12,15.08844211,0.0001663,53.219,84.6501,43.2258,316.8864,0.00014334,1.994e-05,0.0,0 STARLINK-3765,1 52295U 22041AL  22330.01681166  .00001994  00000-0  14334-3 0  9992,2 52295  53.2190  84.6501 0001663  43.2258 316.8864 15.08844211 34613,6917.868,95.437,540.883,538.582,0.0
52295.0,STARLINK-3765,PAYLOAD,2022-11-26 11:31:54,15.08844372,0.0001701,53.2189,82.5681,42.5932,317.5192,7.1694e-05,8.53e-06,0.0,0 STARLINK-3765,1 52295U 22041AL  22330.48049269  .00000853  00000-0  71694-4 0  9991,2 52295  53.2189  82.5681 0001701  42.5932 317.5192 15.08844372 33463,6917.8669999999975,95.437,540.909,538.555,0.0
52295.0,STARLINK-3765,PAYLOAD,2022-11-26 17:53:27,15.08844856,0.0001719,53.2192,81.3789,42.5854,317.5272,6.5328e-05,7.52e-06,0.0,0 STARLINK-3765,1 52295U 22041AL  22330.74545210  .00000752  00000-0  65328-4 0  9992,2 52295  53.2192  81.3789 0001719  42.5854 317.5272 15.08844856 33506,6917.866,95.437,540.92,538.5409999999998,0.0
52295.0,STARLINK-3765,PAYLOAD,2022-11-27 06:36:31,15.0884813,0.0001802,53.2196,79.0006,43.7743,316.3392,8.2212e-05,1.021e-05,0.0,0 STARLINK-3765,1 52295U 22041AL  22331.27536784  .00001021  00000-0  82212-4 0  9998,2 52295  53.2196  79.0006 0001802  43.7743 316.3392 15.08848130 34802,6917.856,95.437,540.967,538.474,0.0
52295.0,STARLINK-3765,PAYLOAD,2022-11-27 14:33:29,15.08827406,0.0001796,53.2203,77.5145,50.3425,309.7726,-7.0624e-05,-1.412e-05,0.0,0 STARLINK-3765,1 52295U 22041AL  22331.60658684 -.00001412  00000-0 -70624-4 0  9999,2 52295  53.2203  77.5145 0001796  50.3425 309.7726 15.08827406 34856,6917.919,95.438,541.026,538.5409999999998,0.0
52295.0,STARLINK-3765,PAYLOAD,2022-11-28 08:02:42,15.08840126,0.0001853,53.2187,74.2422,42.8494,317.2642,-9.7044e-06,-4.43e-06,0.0,0 STARLINK-3765,1 52295U 22041AL  22332.33521902 -.00000443  00000-0 -97044-5 0  9991,2 52295  53.2187  74.2422 0001853  42.8494 317.2642 15.08840126 34962,6917.88,95.438,541.0269999999998,538.4630000000002,0.0
